ONEWEB-0210             
1 48787U 21045W   25299.04762098 -.00000062  00000+0 -19776-3 0  9991
2 48787  87.8969 305.8982 0001765 114.0114 246.1202 13.15548500213532
ONEWEB-0214             
1 48788U 21045X   25299.05633832 -.00000094  00000+0 -28433-3 0  9991
2 48788  87.8966 305.8831 0001584 105.0568 255.0738 13.15547137213500
ONEWEB-0221             
1 48789U 21045Y   25298.98741090 -.00000008  00000+0 -54485-4 0  9991
2 48789  87.8959 305.9191 0001946  99.3257 260.8093 13.15549290213583
ONEWEB-0213             
1 48790U 21045Z   25299.28054791 -.00000087  00000+0 -26469-3 0  9999
2 48790  87.8962 305.8699 0001882 100.5384 259.5958 13.15548480213682
ONEWEB-0212             
1 48791U 21045AA  25299.25756489  .00000087  00000+0  19612-3 0  9990
2 48791  87.8971 305.8603 0001901  90.7424 269.3924 13.15547407213674
ONEWEB-0227             
1 48792U 21045AB  25299.25677665  .00000045  00000+0  84435-4 0  9999
2 48792  87.8961 305.8757 0001926  95.7654 264.3696 13.15549087213623
ONEWEB-0226             
1 48793U 21045AC  25299.25044569  .00000173  00000+0  42427-3 0  9997
2 48793  87.8962 305.8850 0001776 103.4498 256.6830 13.15549091213590
ONEWEB-0224             
1 48794U 21045AD  25299.29004211 -.00000050  00000+0 -16737-3 0  9993
2 48794  87.8958 305.9116 0002826  93.5455 266.5998 13.15550343213521
